start=new Date('2021-12-12T00:00:00.000Z').valueOf();
sats=[{"CLASSIFICATION_TYPE":"U","RA_OF_ASC_NODE":"55.7339","LAUNCH_DATE":"2020-11-25","SITE":"AFETR","OBJECT_TYPE":"PAYLOAD","COUNTRY_CODE":"US","NORAD_CAT_ID":"47152","SEMIMAJOR_AXIS":"6925.340","APOAPSIS":"548.028","DECAY_DATE":null,"MEAN_ANOMALY":"294.4307","OBJECT_ID":"2020-088AG","CENTER_NAME":"EARTH","MEAN_MOTION":"15.06402746","ELEMENT_SET_NO":"999","INCLINATION":"53.0560","RCS_SIZE":"LARGE","ARG_OF_PERICENTER":"65.6806","PERIAPSIS":"546.382","OBJECT_NAME":"STARLINK-1866","TLE_LINE1":"1 47152U 20088AG  21345.60648501  .00001539  00000-0  12219-3 0  9998","REF_FRAME":"TEME","MEAN_MOTION_DDOT":"0.0000000000000","PERIOD":"95.592","GP_ID":"191493332","FILE":"3237453","EPHEMERIS_TYPE":"0","EPOCH":"2021-12-11T14:33:20.304864","MEAN_ELEMENT_THEORY":"SGP4","BSTAR":"0.00012219000000","TIME_SYSTEM":"UTC","ECCENTRICITY":"0.00011880","TLE_LINE2":"2 47152  53.0560  55.7339 0001188  65.6806 294.4307 15.06402746 58356","MEAN_MOTION_DOT":"0.00001539","REV_AT_EPOCH":"5835"},{"MEAN_ANOMALY":"279.3492","SEMIMAJOR_AXIS":"6925.355","DECAY_DATE":null,"APOAPSIS":"548.073","CENTER_NAME":"EARTH","OBJECT_ID":"2020-088AH","ELEMENT_SET_NO":"999","MEAN_MOTION":"15.06397819","SITE":"AFETR","LAUNCH_DATE":"2020-11-25","RA_OF_ASC_NODE":"59.3525","CLASSIFICATION_TYPE":"U","NORAD_CAT_ID":"47153","COUNTRY_CODE":"US","OBJECT_TYPE":"PAYLOAD","EPOCH":"2021-12-11T21:54:31.186080","FILE":"3237650","EPHEMERIS_TYPE":"0","GP_ID":"191521320","REV_AT_EPOCH":"5833","MEAN_MOTION_DOT":"0.00000663","TIME_SYSTEM":"UTC","BSTAR":"0.00006342700000","MEAN_ELEMENT_THEORY":"SGP4","TLE_LINE2":"2 47153  53.0544  59.3525 0001232  80.7636 279.3492 15.06397819 58334","ECCENTRICITY":"0.00012320","PERIAPSIS":"546.367","OBJECT_NAME":"STARLINK-1867","INCLINATION":"53.0544","ARG_OF_PERICENTER":"80.7636","RCS_SIZE":"LARGE","REF_FRAME":"TEME","PERIOD":"95.592","MEAN_MOTION_DDOT":"0.0000000000000","TLE_LINE1":"1 47153U 20088AH  21345.91286095  .00000663  00000-0  63427-4 0  9994"},{"MEAN_MOTION_DOT":"-0.00000804","REV_AT_EPOCH":"5847","BSTAR":"-0.00003508100000","MEAN_ELEMENT_THEORY":"SGP4","TIME_SYSTEM":"UTC","ECCENTRICITY":"0.00012870","TLE_LINE2":"2 47154  53.0551  46.4524 0001287  81.9307 278.1828 15.06398486 58473","FILE":"3237453","EPHEMERIS_TYPE":"0","EPOCH":"2021-12-11T10:41:08.042208","GP_ID":"191493835","REF_FRAME":"TEME","MEAN_MOTION_DDOT":"0.0000000000000","PERIOD":"95.592","TLE_LINE1":"1 47154U 20088AJ  21345.44523197 -.00000804  00000-0 -35081-4 0  9994","PERIAPSIS":"546.327","OBJECT_NAME":"STARLINK-1868","INCLINATION":"53.0551","RCS_SIZE":"LARGE","ARG_OF_PERICENTER":"81.9307","CENTER_NAME":"EARTH","OBJECT_ID":"2020-088AJ","MEAN_MOTION":"15.06398486","ELEMENT_SET_NO":"999","MEAN_ANOMALY":"278.1828","SEMIMAJOR_AXIS":"6925.353","APOAPSIS":"548.109","DECAY_DATE":null,"NORAD_CAT_ID":"47154","OBJECT_TYPE":"PAYLOAD","COUNTRY_CODE":"US","LAUNCH_DATE":"2020-11-25","SITE":"AFETR","CLASSIFICATION_TYPE":"U","RA_OF_ASC_NODE":"46.4524"},{"OBJECT_TYPE":"PAYLOAD","COUNTRY_CODE":"US","NORAD_CAT_ID":"47155","CLASSIFICATION_TYPE":"U","RA_OF_ASC_NODE":"65.6851","LAUNCH_DATE":"2020-11-25","SITE":"AFETR","OBJECT_ID":"2020-088AK","CENTER_NAME":"EARTH","ELEMENT_SET_NO":"999","MEAN_MOTION":"15.06394206","SEMIMAJOR_AXIS":"6925.366","APOAPSIS":"548.096","DECAY_DATE":null,"MEAN_ANOMALY":"276.7975","TLE_LINE1":"1 47155U 20088AK  21345.61293680 -.00000041  00000-0  16117-4 0  9996","REF_FRAME":"TEME","MEAN_MOTION_DDOT":"0.0000000000000","PERIOD":"95.593","INCLINATION":"53.0546","RCS_SIZE":"LARGE","ARG_OF_PERICENTER":"83.3156","PERIAPSIS":"546.367","OBJECT_NAME":"STARLINK-1869","MEAN_ELEMENT_THEORY":"SGP4","BSTAR":"0.00001611700000","TIME_SYSTEM":"UTC","ECCENTRICITY":"0.00012480","TLE_LINE2":"2 47155  53.0546  65.6851 0001248  83.3156 276.7975 15.06394206 58214","REV_AT_EPOCH":"5821","MEAN_MOTION_DOT":"-0.00000041","GP_ID":"191522814","EPHEMERIS_TYPE":"0","FILE":"3237650","EPOCH":"2021-12-11T14:42:37.739520"},{"APOAPSIS":"390.394","DECAY_DATE":null,"SEMIMAJOR_AXIS":"6765.376","MEAN_ANOMALY":"304.4966","MEAN_MOTION":"15.60144512","ELEMENT_SET_NO":"999","CENTER_NAME":"EARTH","OBJECT_ID":"2020-088AL","CLASSIFICATION_TYPE":"U","RA_OF_ASC_NODE":"333.0009","LAUNCH_DATE":"2020-11-25","SITE":"AFETR","OBJECT_TYPE":"PAYLOAD","COUNTRY_CODE":"US","NORAD_CAT_ID":"47156","GP_ID":"191522572","FILE":"3237650","EPHEMERIS_TYPE":"0","EPOCH":"2021-12-11T16:14:59.565984","ECCENTRICITY":"0.00046600","TLE_LINE2":"2 47156  53.0554 333.0009 0004660  55.6487 304.4966 15.60144512 59539","BSTAR":"0.00018555000000","MEAN_ELEMENT_THEORY":"SGP4","TIME_SYSTEM":"UTC","REV_AT_EPOCH":"5953","MEAN_MOTION_DOT":"0.00014874","RCS_SIZE":"LARGE","ARG_OF_PERICENTER":"55.6487","INCLINATION":"53.0554","OBJECT_NAME":"STARLINK-1870","PERIAPSIS":"384.089","TLE_LINE1":"1 47156U 20088AL  21345.67707831  .00014874  00000-0  18555-3 0  9996","MEAN_MOTION_DDOT":"0.0000000000000","PERIOD":"92.299","REF_FRAME":"TEME"},{"ECCENTRICITY":"0.00013960","TLE_LINE2":"2 47157  53.0544  54.3333 0001396  76.1820 283.9324 15.06399964 58401","BSTAR":"0.00007374300000","MEAN_ELEMENT_THEORY":"SGP4","TIME_SYSTEM":"UTC","MEAN_MOTION_DOT":"0.00000817","REV_AT_EPOCH":"5840","GP_ID":"191521813","FILE":"3237650","EPHEMERIS_TYPE":"0","EPOCH":"2021-12-11T21:59:11.261184","TLE_LINE1":"1 47157U 20088AM  21345.91610256  .00000817  00000-0  73743-4 0  9991","MEAN_MOTION_DDOT":"0.0000000000000","PERIOD":"95.592","REF_FRAME":"TEME","RCS_SIZE":"LARGE","ARG_OF_PERICENTER":"76.1820","INCLINATION":"53.0544","OBJECT_NAME":"STARLINK-1871","PERIAPSIS":"546.247","ELEMENT_SET_NO":"999","MEAN_MOTION":"15.06399964","OBJECT_ID":"2020-088AM","CENTER_NAME":"EARTH","APOAPSIS":"548.180","DECAY_DATE":null,"SEMIMAJOR_AXIS":"6925.349","MEAN_ANOMALY":"283.9324","OBJECT_TYPE":"PAYLOAD","COUNTRY_CODE":"US","NORAD_CAT_ID":"47157","CLASSIFICATION_TYPE":"U","RA_OF_ASC_NODE":"54.3333","LAUNCH_DATE":"2020-11-25","SITE":"AFETR"},{"ARG_OF_PERICENTER":"66.4886","RCS_SIZE":"LARGE","INCLINATION":"53.0563","OBJECT_NAME":"STARLINK-1873","PERIAPSIS":"546.324","TLE_LINE1":"1 47158U 20088AN  21345.87279850 -.00000024  00000-0  17269-4 0  9990","PERIOD":"95.592","MEAN_MOTION_DDOT":"0.0000000000000","REF_FRAME":"TEME","GP_ID":"191522063","EPOCH":"2021-12-11T20:56:49.790400","FILE":"3237650","EPHEMERIS_TYPE":"0","TLE_LINE2":"2 47158  53.0563  44.5143 0001286  66.4886 293.6238 15.06399535 58535","ECCENTRICITY":"0.00012860","TIME_SYSTEM":"UTC","BSTAR":"0.00001726900000","MEAN_ELEMENT_THEORY":"SGP4","MEAN_MOTION_DOT":"-0.00000024","REV_AT_EPOCH":"5853","RA_OF_ASC_NODE":"44.5143","CLASSIFICATION_TYPE":"U","SITE":"AFETR","LAUNCH_DATE":"2020-11-25","COUNTRY_CODE":"US","OBJECT_TYPE":"PAYLOAD","NORAD_CAT_ID":"47158","DECAY_DATE":null,"APOAPSIS":"548.106","SEMIMAJOR_AXIS":"6925.350","MEAN_ANOMALY":"293.6238","ELEMENT_SET_NO":"999","MEAN_MOTION":"15.06399535","OBJECT_ID":"2020-088AN","CENTER_NAME":"EARTH"},{"GP_ID":"191522322","FILE":"3237650","EPHEMERIS_TYPE":"0","EPOCH":"2021-12-11T21:36:31.005504","BSTAR":"0.00069377000000","MEAN_ELEMENT_THEORY":"SGP4","TIME_SYSTEM":"UTC","ECCENTRICITY":"0.00020560","TLE_LINE2":"2 47159  53.0566  48.4159 0002056  39.0011 321.1142 15.42357039 58489","MEAN_MOTION_DOT":"0.00030099","REV_AT_EPOCH":"5848","INCLINATION":"53.0566","RCS_SIZE":"LARGE","ARG_OF_PERICENTER":"39.0011","PERIAPSIS":"437.755","OBJECT_NAME":"STARLINK-1874","TLE_LINE1":"1 47159U 20088AP  21345.90035886  .00030099  00000-0  69377-3 0  9994","REF_FRAME":"TEME","MEAN_MOTION_DDOT":"0.0000000000000","PERIOD":"93.364","SEMIMAJOR_AXIS":"6817.292","APOAPSIS":"440.559","DECAY_DATE":null,"MEAN_ANOMALY":"321.1142","OBJECT_ID":"2020-088AP","CENTER_NAME":"EARTH","ELEMENT_SET_NO":"999","MEAN_MOTION":"15.42357039","CLASSIFICATION_TYPE":"U","RA_OF_ASC_NODE":"48.4159","LAUNCH_DATE":"2020-11-25","SITE":"AFETR","OBJECT_TYPE":"PAYLOAD","COUNTRY_CODE":"US","NORAD_CAT_ID":"47159"},{"GP_ID":"191523065","EPOCH":"2021-12-11T21:44:36.366144","FILE":"3237650","EPHEMERIS_TYPE":"0","TLE_LINE2":"2 47161  53.0556  44.3733 0001191  72.4838 287.6281 15.06396206 58547","ECCENTRICITY":"0.00011910","TIME_SYSTEM":"UTC","MEAN_ELEMENT_THEORY":"SGP4","BSTAR":"-0.00003530900000","MEAN_MOTION_DOT":"-0.00000807","REV_AT_EPOCH":"5854","ARG_OF_PERICENTER":"72.4838","RCS_SIZE":"LARGE","INCLINATION":"53.0556","OBJECT_NAME":"STARLINK-1876","PERIAPSIS":"546.400","TLE_LINE1":"1 47161U 20088AR  21345.90597646 -.00000807  00000-0 -35309-4 0  9999","PERIOD":"95.592","MEAN_MOTION_DDOT":"0.0000000000000","REF_FRAME":"TEME","DECAY_DATE":null,"APOAPSIS":"548.050","SEMIMAJOR_AXIS":"6925.360","MEAN_ANOMALY":"287.6281","MEAN_MOTION":"15.06396206","ELEMENT_SET_NO":"999","OBJECT_ID":"2020-088AR","CENTER_NAME":"EARTH","RA_OF_ASC_NODE":"44.3733","CLASSIFICATION_TYPE":"U","SITE":"AFETR","LAUNCH_DATE":"2020-11-25","COUNTRY_CODE":"US","OBJECT_TYPE":"PAYLOAD","NORAD_CAT_ID":"47161"},{"MEAN_ELEMENT_THEORY":"SGP4","BSTAR":"-0.00002639300000","TIME_SYSTEM":"UTC","ECCENTRICITY":"0.00011060","TLE_LINE2":"2 47162  53.0562  54.3908 0001106  65.4738 294.6366 15.06391782 58408","REV_AT_EPOCH":"5840","MEAN_MOTION_DOT":"-0.00000674","GP_ID":"191521321","EPHEMERIS_TYPE":"0","FILE":"3237650","EPOCH":"2021-12-11T21:37:58.309248","TLE_LINE1":"1 47162U 20088AS  21345.90136932 -.00000674  00000-0 -26393-4 0  9992","REF_FRAME":"TEME","MEAN_MOTION_DDOT":"0.0000000000000","PERIOD":"95.593","INCLINATION":"53.0562","RCS_SIZE":"LARGE","ARG_OF_PERICENTER":"65.4738","PERIAPSIS":"546.473","OBJECT_NAME":"STARLINK-1877","OBJECT_ID":"2020-088AS","CENTER_NAME":"EARTH","ELEMENT_SET_NO":"999","MEAN_MOTION":"15.06391782","SEMIMAJOR_AXIS":"6925.374","APOAPSIS":"548.005","DECAY_DATE":null,"MEAN_ANOMALY":"294.6366","OBJECT_TYPE":"PAYLOAD","COUNTRY_CODE":"US","NORAD_CAT_ID":"47162","CLASSIFICATION_TYPE":"U","RA_OF_ASC_NODE":"54.3908","LAUNCH_DATE":"2020-11-25","SITE":"AFETR"}];
